{
  "type": "FeatureCollection",
  "features": [
    {
      "type": "Feature",
      "id": 227,
      "properties": {
        "ID_0": 105,
        "ISO": "IND",
        "NAME_0": "India",
        "ID_1": 17,
        "NAME_1": "Karnataka",
        "ID_2": 228,
        "NAME_2": "Dharwad",
        "NL_NAME_2": null,
        "VARNAME_2": "Dhawad, Dharwar",
        "TYPE_2": "District",
        "ENGTYPE_2": "District"
      },
      "geometry": {
        "type": "Polygon",
        "coordinates": [
          [
            [75.498420715332315, 15.67755126953125],
            [75.504173278808594, 15.656379699707031],
            [75.505065917969034, 15.645410537719954],
            [75.536041259765796, 15.643532752990836],
            [75.557319641113395, 15.64445972442627],
            [75.551696777343921, 15.612980842590332],
            [75.549316406250284, 15.609491348266602],
            [75.545501708984659, 15.608510971069393],
            [75.542152404785327, 15.592471122741813],
            [75.53617095947294, 15.587310791015625],
            [75.530586242675838, 15.559280395507813],
            [75.532798767090014, 15.53540134429943],
            [75.508171081542969, 15.527331352233887],
            [75.48697662353544, 15.527779579162541],
            [75.48239898681669, 15.51764011383068],
            [75.4776611328125, 15.517730712890682],
            [75.476753234863281, 15.500690460205305],
            [75.474105834960994, 15.490121841430721],
            [75.489723205566406, 15.485330581665039],
            [75.496101379394815, 15.467790603637695],
            [75.494110107421875, 15.45321083068859],
            [75.494598388672159, 15.443281173706055],
            [75.499511718750057, 15.422250747680891],
            [75.494041442871037, 15.369030952453613],
            [75.488647460937614, 15.368930816650504],
            [75.487609863281421, 15.37327957153343],
            [75.483390808105639, 15.375452041625977],
            [75.482643127441577, 15.389710426330566],
            [75.472862243652628, 15.393570899963379],
            [75.470748901367472, 15.383049964904785],
            [75.447181701660327, 15.382141113281477],
            [75.450965881347827, 15.355800628662223],
            [75.456809997558878, 15.355381965637264],
            [75.45987701416044, 15.345490455627441],
            [75.458618164062671, 15.339429855346793],
            [75.451278686523722, 15.325792312622184],
            [75.452362060546932, 15.298550605773983],
            [75.430328369140909, 15.298919677734375],
            [75.427848815918253, 15.29559135437006],
            [75.416313171386776, 15.297471046447811],
            [75.414268493652457, 15.293340682983398],
            [75.414237976074276, 15.283948898315373],
            [75.410041809082088, 15.281221389770508],
            [75.410568237304687, 15.27479076385498],
            [75.420341491699276, 15.275650978088379],
            [75.420906066894588, 15.272500991821346],
            [75.405776977539233, 15.269359588623161],
            [75.405700683594034, 15.257740974426326],
            [75.419532775878906, 15.25769138336193],
            [75.420669555664233, 15.253860473632756],
            [75.418960571289062, 15.247101783752498],
            [75.419326782226733, 15.23646068572998],
            [75.420852661132983, 15.230690002441463],
            [75.425621032715014, 15.231231689453125],
            [75.426727294921875, 15.221521377563477],
            [75.442840576171932, 15.223011970520076],
            [75.450096130371151, 15.212210655212516],
            [75.449996948242188, 15.204739570617789],
            [75.436943054199276, 15.204919815063477],
            [75.435630798339957, 15.195151329040527],
            [75.402870178222599, 15.195269584655819],
            [75.401481628418082, 15.183621406555176],
            [75.403472900390796, 15.170538902282715],
            [75.397979736328125, 15.168259620666447],
            [75.399085998535327, 15.16201114654541],
            [75.403762817382869, 15.161801338195858],
            [75.404029846191406, 15.166691780090332],
            [75.40836334228544, 15.167241096496582],
            [75.407402038574332, 15.162150382995719],
            [75.410797119140682, 15.162739753723201],
            [75.410499572753849, 15.15962028503418],
            [75.415863037109375, 15.159599304199332],
            [75.416412353515568, 15.148387908935604],
            [75.419296264648438, 15.138651847839583],
            [75.432731628418026, 15.120559692382812],
            [75.436492919922046, 15.102621078491211],
            [75.425216674804858, 15.095081329345646],
            [75.427200317382869, 15.091960906982479],
            [75.424522399902401, 15.08905124664318],
            [75.424797058105753, 15.083661079406681],
            [75.419631958008097, 15.082901954651106],
            [75.421936035156534, 15.065731048583984],
            [75.418212890625057, 15.052889823913688],
            [75.404441833496264, 15.054650306701717],
            [75.384170532226847, 15.046731948852653],
            [75.370109558105639, 15.044031143188533],
            [75.365028381347713, 15.053860664367789],
            [75.359016418457031, 15.058891296386832],
            [75.344039916992244, 15.062020301818791],
            [75.341346740722713, 15.065390586852971],
            [75.340881347656193, 15.070690155029297],
            [75.338043212890625, 15.076930046081486],
            [75.332359313965014, 15.077700614929142],
            [75.336380004882869, 15.083921432495117],
            [75.342681884765682, 15.085729598999137],
            [75.341316223144702, 15.089159965515137],
            [75.347946166992131, 15.089941978454647],
            [75.351951599121037, 15.092111587524471],
            [75.353576660156307, 15.099021911621094],
            [75.344596862793026, 15.103070259094352],
            [75.341491699218921, 15.107199668884277],
            [75.339790344238452, 15.120182037353572],
            [75.339820861816463, 15.156290054321289],
            [75.311447143554744, 15.151400566101131],
            [75.312316894531421, 15.136751174926871],
            [75.292190551757926, 15.133391380310115],
            [75.29184722900419, 15.125841140747298],
            [75.265380859375171, 15.112361907959041],
            [75.260200500488224, 15.093221664428654],
            [75.256118774414119, 15.093998908996582],
            [75.255859375000171, 15.102460861206112],
            [75.243942260742301, 15.100850105285645],
            [75.243988037109318, 15.104069709777775],
            [75.230155944824276, 15.101289749145621],
            [75.229072570801065, 15.095861434936637],
            [75.193817138672159, 15.09337043762207],
            [75.189788818359659, 15.098877906799316],
            [75.169471740722827, 15.096891403198242],
            [75.162788391113452, 15.098670959472656],
            [75.162452697753963, 15.104190826416129],
            [75.149581909179631, 15.100451469421387],
            [75.149108886718807, 15.097222328186092],
            [75.144691467285213, 15.09674072265625],
            [75.140426635742131, 15.113980293273869],
            [75.144996643066349, 15.125451087951717],
            [75.150146484374943, 15.130331039428938],
            [75.157882690429744, 15.142041206359863],
            [75.148910522460994, 15.155571937561263],
            [75.141082763671932, 15.155791282653922],
            [75.139785766601619, 15.146769523620605],
            [75.134925842285327, 15.138389587402571],
            [75.13018798828125, 15.14021110534668],
            [75.12686920166044, 15.135319709777946],
            [75.116287231445369, 15.134201049804744],
            [75.110557556152401, 15.135239601135368],
            [75.109573364257983, 15.125790596008414],
            [75.117492675781534, 15.120411872863826],
            [75.117095947265739, 15.112870216369686],
            [75.102966308593807, 15.109992027282829],
            [75.096702575683878, 15.106560707092513],
            [75.082626342773381, 15.106650352478027],
            [75.085968017578182, 15.078651428222656],
            [75.083801269531421, 15.069540977478141],
            [75.073997497558707, 15.067431449890137],
            [75.065322875976733, 15.068490982055778],
            [75.061042785644815, 15.069939613342513],
            [75.058761596679972, 15.077759742737044],
            [75.037048339843693, 15.072360992431754],
            [75.036422729492301, 15.070690155029297],
            [75.025382995605753, 15.065759658813704],
            [75.022911071777628, 15.066890716552734],
            [75.014488220214957, 15.065400123596305],
            [75.002983093261776, 15.06682014465332],
            [74.999557495117244, 15.069401741027832],
            [74.986526489257983, 15.067321777343693],
            [74.983367919921932, 15.065090179443473],
            [74.972106933593807, 15.067277908325252],
            [74.96396636962919, 15.061930656433105],
            [74.955802917480469, 15.063691139221305],
            [74.948387145996264, 15.061411857605037],
            [74.943557739258097, 15.063281059265194],
            [74.942939758300838, 15.048931121826115],
            [74.940452575683651, 15.047470092773551],
            [74.934906005859432, 15.048580169677734],
            [74.930603027344034, 15.047269821166992],
            [74.923568725585938, 15.039139747619629],
            [74.914627075195483, 15.03472995758051],
            [74.910446166992358, 15.046451568603459],
            [74.896438598633097, 15.041899681091422],
            [74.893608093261662, 15.045061111450138],
            [74.893531799316463, 15.052581787109432],
            [74.890182495117131, 15.059062004089355],
            [74.889808654785156, 15.064460754394474],
            [74.883552551269702, 15.069461822509822],
            [74.884498596191577, 15.081071853637809],
            [74.893371582031364, 15.089230537414551],
            [74.895858764648722, 15.093541145324821],
            [74.895256042480526, 15.095211029052791],
            [74.892852783203068, 15.097111701965559],
            [74.88919830322294, 15.096130371093693],
            [74.880287170410327, 15.09883975982666],
            [74.862106323242472, 15.100751876831112],
            [74.859687805175952, 15.108849525451888],
            [74.854888916015568, 15.114311218261719],
            [74.856979370117472, 15.118050575256461],
            [74.854492187500284, 15.120182037353572],
            [74.848060607910327, 15.118691444396973],
            [74.846595764160213, 15.123750686645735],
            [74.843353271484432, 15.126111984252987],
            [74.839691162109546, 15.125241279601994],
            [74.832389831542912, 15.130478858947697],
            [74.834686279296875, 15.135370254516658],
            [74.839340209960994, 15.137440681457463],
            [74.839042663574503, 15.145199775695858],
            [74.84568023681652, 15.150780677795467],
            [74.847389221191463, 15.155670166015625],
            [74.852203369140909, 15.158489227294979],
            [74.853607177734546, 15.16625022888195],
            [74.866622924804744, 15.175040245056266],
            [74.869445800781421, 15.182690620422363],
            [74.880508422851733, 15.190389633178768],
            [74.877021789550724, 15.200349807739258],
            [74.876716613769588, 15.210239410400504],
            [74.889778137207315, 15.224320411682072],
            [74.891067504882869, 15.230238914489746],
            [74.910751342773722, 15.244610786438102],
            [74.912376403808651, 15.247941017150993],
            [74.909362792968807, 15.272320747375488],
            [74.902198791503849, 15.296249389648437],
            [74.900840759277628, 15.298430442810172],
            [74.898376464843693, 15.297739982605037],
            [74.893241882324219, 15.30451965332054],
            [74.889358520507926, 15.297920227050724],
            [74.885696411132869, 15.295271873474121],
            [74.87967681884794, 15.297751426696777],
            [74.881690979003963, 15.304189682006836],
            [74.880966186523551, 15.312170982360954],
            [74.870307922363565, 15.318511962890739],
            [74.862976074218807, 15.326680183410645],
            [74.858787536621151, 15.33778190612793],
            [74.853172302246037, 15.337381362915096],
            [74.850547790527514, 15.332719802856445],
            [74.838493347167912, 15.330710411071721],
            [74.830093383789006, 15.340720176696834],
            [74.825820922851619, 15.364119529724121],
            [74.826698303222827, 15.369240760803336],
            [74.832992553711108, 15.372211456298771],
            [74.825019836425838, 15.381190299987793],
            [74.802986145019815, 15.374191284179801],
            [74.794448852539063, 15.377011299133244],
            [74.790306091308651, 15.382350921630859],
            [74.786521911621151, 15.391270637512321],
            [74.774261474609546, 15.398459434509277],
            [74.769493103027514, 15.396511077880859],
            [74.770652770996094, 15.401041984558105],
            [74.775482177734432, 15.406680107116813],
            [74.771171569824219, 15.413628578186092],
            [74.758331298828239, 15.407299995422477],
            [74.753273010254077, 15.410470962524528],
            [74.746826171875057, 15.408921241760368],
            [74.746643066406307, 15.416971206665153],
            [74.738929748535099, 15.420420646667594],
            [74.734970092773608, 15.426971435547102],
            [74.736289978027514, 15.435482025146541],
            [74.738822937011776, 15.441169738769474],
            [74.745056152343921, 15.445880889892578],
            [74.749130249023494, 15.458879470825252],
            [74.747856140137003, 15.462101936340332],
            [74.73850250244169, 15.465781211853027],
            [74.733818054199389, 15.477499961853084],
            [74.734207153320483, 15.482560157775993],
            [74.731796264648494, 15.483241081237793],
            [74.731391906738338, 15.486641883850098],
            [74.75089263916027, 15.49199104309082],
            [74.765487670898608, 15.467061042785645],
            [74.769821166992131, 15.471140861511344],
            [74.780982971191463, 15.457000732421818],
            [74.793106079101563, 15.46987247467041],
            [74.793472290039006, 15.474251747131348],
            [74.791206359863281, 15.482012748718375],
            [74.799758911133097, 15.484539985656852],
            [74.803459167480469, 15.491040229797477],
            [74.803810119629077, 15.494931221008301],
            [74.808410644531421, 15.496310234069938],
            [74.807975769042912, 15.498612403869572],
            [74.817420959472713, 15.500621795654297],
            [74.814346313476619, 15.50597095489502],
            [74.815643310547046, 15.517869949340934],
            [74.801979064941463, 15.543380737304801],
            [74.81272125244169, 15.546601295471248],
            [74.816177368164006, 15.55166053771967],
            [74.827316284179744, 15.561312675476302],
            [74.827842712402514, 15.564410209655875],
            [74.844406127929631, 15.571760177612418],
            [74.838020324707088, 15.587390899658203],
            [74.83481597900402, 15.587109565735091],
            [74.83463287353544, 15.606880187988395],
            [74.842987060546932, 15.60808086395275],
            [74.845970153808764, 15.604290008545036],
            [74.882286071777401, 15.614261627197209],
            [74.882102966308651, 15.618229866027889],
            [74.887771606445369, 15.620410919189453],
            [74.893951416015909, 15.627301216125488],
            [74.897422790527287, 15.626560211181697],
            [74.902557373047159, 15.62804126739502],
            [74.911636352539119, 15.626619338989201],
            [74.917472839355469, 15.627941131591911],
            [74.923042297363452, 15.623979568481445],
            [74.936073303222713, 15.619891166687069],
            [74.948806762695369, 15.619820594787825],
            [74.967163085937557, 15.62280178070074],
            [74.967391967773722, 15.639861106872672],
            [74.970787048339901, 15.648911476135197],
            [74.985488891601676, 15.645440101623649],
            [74.995719909667969, 15.647170066833496],
            [75.017883300781307, 15.642210960388184],
            [75.023452758789176, 15.642311096191634],
            [75.025177001953409, 15.647182464599666],
            [75.031860351562784, 15.650000572204533],
            [75.033317565918026, 15.666179656982422],
            [75.050460815429687, 15.668801307678223],
            [75.052879333496037, 15.679369926452694],
            [75.064582824707088, 15.67825984954834],
            [75.067192077636719, 15.667449951171875],
            [75.061836242675724, 15.646550178527832],
            [75.059883117675895, 15.628741264343205],
            [75.084861755371207, 15.619489669799805],
            [75.091583251953409, 15.608820915222225],
            [75.095397949219034, 15.605999946594466],
            [75.1011962890625, 15.624051094055176],
            [75.103637695312671, 15.659440994262695],
            [75.10739898681669, 15.65957069396984],
            [75.109832763671932, 15.669091224670524],
            [75.126052856445369, 15.665081977844238],
            [75.125968933105639, 15.663240432739201],
            [75.145271301269588, 15.656810760498047],
            [75.153549194336222, 15.659090042114258],
            [75.173362731933707, 15.658761978149641],
            [75.188186645507869, 15.654611587524528],
            [75.190116882324276, 15.646659851074219],
            [75.205467224121037, 15.647160530090332],
            [75.206878662109432, 15.656669616699332],
            [75.205001831054744, 15.679051399231184],
            [75.220832824707088, 15.679230690002385],
            [75.221122741699219, 15.675959587097225],
            [75.239578247070597, 15.676692008972225],
            [75.243682861328182, 15.662619590759277],
            [75.252899169921989, 15.6436510086059],
            [75.275299072265796, 15.647719383239689],
            [75.274612426757869, 15.664609909057731],
            [75.280937194824332, 15.68628025054926],
            [75.297836303711108, 15.688591003417969],
            [75.306526184082315, 15.683691024780387],
            [75.314567565917912, 15.676531791687069],
            [75.335632324218807, 15.673291206359863],
            [75.338783264160099, 15.671500205993766],
            [75.338638305664233, 15.645290374755916],
            [75.362686157226733, 15.643181800842228],
            [75.366287231445483, 15.666060447692871],
            [75.391716003418026, 15.662020683288802],
            [75.404396057128849, 15.655511856079329],
            [75.415191650390682, 15.652840614318904],
            [75.421371459960881, 15.660530090332031],
            [75.427162170410156, 15.660169601440487],
            [75.428077697754077, 15.667940139770565],
            [75.443748474121264, 15.668789863586539],
            [75.447792053222713, 15.67747974395752],
            [75.452011108398494, 15.67577075958252],
            [75.456962585449276, 15.678971290588436],
            [75.468566894531307, 15.679619789123478],
            [75.475738525390568, 15.685090065002555],
            [75.473411560058878, 15.689588546752987],
            [75.47190093994169, 15.698711395263786],
            [75.490646362304858, 15.699259757995719],
            [75.498420715332315, 15.67755126953125]
          ]
        ]
      }
    }
  ]
}
